{
    "links": {
        "self": "http://www.neowsapp.com/rest/v1/neo/3610180?api_key=iIulBulltgU6a56xZRHN4H3l9WmuAYTsLGpBGhQ2"
    },
    "id": "3610180",
    "neo_reference_id": "3610180",
    "name": "(2012 TL79)",
    "designation": "2012 TL79",
    "nasa_jpl_url": "http://ssd.jpl.nasa.gov/sbdb.cgi?sstr=3610180",
    "absolute_magnitude_h": 25.5,
    "estimated_diameter": {
        "kilometers": {
            "estimated_diameter_min": 0.0211132445,
            "estimated_diameter_max": 0.0472106499
        },
        "meters": {
            "estimated_diameter_min": 21.113244479,
            "estimated_diameter_max": 47.2106498806
        },
        "miles": {
            "estimated_diameter_min": 0.0131191578,
            "estimated_diameter_max": 0.0293353287
        },
        "feet": {
            "estimated_diameter_min": 69.2691770164,
            "estimated_diameter_max": 154.8905885541
        }
    },
    "is_potentially_hazardous_asteroid": false,
    "close_approach_data": [
        {
            "close_approach_date": "2012-10-21",
            "close_approach_date_full": "2012-Oct-21 01:50",
            "epoch_date_close_approach": 1350784200000,
            "relative_velocity": {
                "kilometers_per_second": "6.1724329252",
                "kilometers_per_hour": "22220.7585306573",
                "miles_per_hour": "13807.1152103409"
            },
            "miss_distance": {
                "astronomical": "0.1118992926",
                "lunar": "43.5288248214",
                "kilometers": "16739895.827466762",
                "miles": "10401688.9344628356"
            },
            "orbiting_body": "Earth"
        }
    ],
    "orbital_data": {
        "orbit_id": "4",
        "orbit_determination_date": "2017-04-06 08:48:38",
        "first_observation_date": "2012-10-10",
        "last_observation_date": "2012-10-11",
        "data_arc_in_days": 1,
        "observations_used": 20,
        "orbit_uncertainty": "9",
        "minimum_orbit_intersection": ".111197",
        "jupiter_tisserand_invariant": "3.956",
        "epoch_osculation": "2456211.5",
        "eccentricity": ".396838869838266",
        "semi_major_axis": "1.801956087377883",
        "inclination": "8.503549759300169",
        "ascending_node_longitude": "12.10191073256563",
        "orbital_period": "883.5166367952932",
        "perihelion_distance": "1.08686987016466",
        "perihelion_argument": "31.53084400857117",
        "aphelion_distance": "2.517042304591105",
        "perihelion_time": "2456236.087122399565",
        "mean_anomaly": "349.9816667901702",
        "mean_motion": ".4074626158776118",
        "equinox": "J2000",
        "orbit_class": {
            "orbit_class_type": "AMO",
            "orbit_class_description": "Near-Earth asteroid orbits similar to that of 1221 Amor",
            "orbit_class_range": "1.017 AU < q (perihelion) < 1.3 AU"
        }
    },
    "is_sentry_object": false
}